CCSDS_OMM_VERS = 2.0
CREATION_DATE  = 
ORIGINATOR     = 

OBJECT_NAME    = ARIANE 5 R/B
OBJECT_ID      = 2004-049H
CENTER_NAME    = EARTH
REF_FRAME      = TEME
TIME_SYSTEM    = UTC
MEAN_ELEMENT_THEORY = SGP/SGP4

EPOCH          = 2025-11-10T21:58:24.692448
MEAN_MOTION    = 14.84911862
ECCENTRICITY   = .0085062
INCLINATION    = 98.2514
RA_OF_ASC_NODE = 114.0615
ARG_OF_PERICENTER = 16.8466
MEAN_ANOMALY   = 343.5541

EPHEMERIS_TYPE = 0
CLASSIFICATION_TYPE = U
NORAD_CAT_ID   = 28499
ELEMENT_SET_NO = 999
REV_AT_EPOCH   = 12816
BSTAR          = .15373066E-3
MEAN_MOTION_DOT = .1331E-4
MEAN_MOTION_DDOT = 0

CCSDS_OMM_VERS = 2.0
CREATION_DATE  = 
ORIGINATOR     = 

OBJECT_NAME    = CZ-2D R/B
OBJECT_ID      = 2005-024B
CENTER_NAME    = EARTH
REF_FRAME      = TEME
TIME_SYSTEM    = UTC
MEAN_ELEMENT_THEORY = SGP/SGP4

EPOCH          = 2025-11-10T17:51:48.821184
MEAN_MOTION    = 15.51010750
ECCENTRICITY   = .00082137
INCLINATION    = 97.3670
RA_OF_ASC_NODE = 321.3996
ARG_OF_PERICENTER = 95.0582
MEAN_ANOMALY   = 265.1607

EPHEMERIS_TYPE = 0
CLASSIFICATION_TYPE = U
NORAD_CAT_ID   = 28738
ELEMENT_SET_NO = 999
REV_AT_EPOCH   = 12129
BSTAR          = .5711516E-3
MEAN_MOTION_DOT = .33209E-3
MEAN_MOTION_DDOT = 0

CCSDS_OMM_VERS = 2.0
CREATION_DATE  = 
ORIGINATOR     = 

OBJECT_NAME    = ALOS (DAICHI)
OBJECT_ID      = 2006-002A
CENTER_NAME    = EARTH
REF_FRAME      = TEME
TIME_SYSTEM    = UTC
MEAN_ELEMENT_THEORY = SGP/SGP4

EPOCH          = 2025-11-10T19:50:40.868160
MEAN_MOTION    = 14.69326995
ECCENTRICITY   = .0001145
INCLINATION    = 98.1044
RA_OF_ASC_NODE = 266.5513
ARG_OF_PERICENTER = 50.7349
MEAN_ANOMALY   = 309.3958

EPHEMERIS_TYPE = 0
CLASSIFICATION_TYPE = U
NORAD_CAT_ID   = 28931
ELEMENT_SET_NO = 999
REV_AT_EPOCH   = 5602
BSTAR          = .50280412E-3
MEAN_MOTION_DOT = .2921E-4
MEAN_MOTION_DDOT = 0

CCSDS_OMM_VERS = 2.0
CREATION_DATE  = 
ORIGINATOR     = 

OBJECT_NAME    = H-2A R/B
OBJECT_ID      = 2006-002B
CENTER_NAME    = EARTH
REF_FRAME      = TEME
TIME_SYSTEM    = UTC
MEAN_ELEMENT_THEORY = SGP/SGP4

EPOCH          = 2025-11-10T08:04:48.222336
MEAN_MOTION    = 15.13651280
ECCENTRICITY   = .00547399
INCLINATION    = 98.2298
RA_OF_ASC_NODE = 86.4675
ARG_OF_PERICENTER = 287.2161
MEAN_ANOMALY   = 72.3081

EPHEMERIS_TYPE = 0
CLASSIFICATION_TYPE = U
NORAD_CAT_ID   = 28932
ELEMENT_SET_NO = 999
REV_AT_EPOCH   = 7636
BSTAR          = .63221986E-3
MEAN_MOTION_DOT = .11724E-3
MEAN_MOTION_DDOT = 0

CCSDS_OMM_VERS = 2.0
CREATION_DATE  = 
ORIGINATOR     = 

OBJECT_NAME    = RESURS-DK 1
OBJECT_ID      = 2006-021A
CENTER_NAME    = EARTH
REF_FRAME      = TEME
TIME_SYSTEM    = UTC
MEAN_ELEMENT_THEORY = SGP/SGP4

EPOCH          = 2025-11-10T02:00:12.020544
MEAN_MOTION    = 15.11889172
ECCENTRICITY   = .00073225
INCLINATION    = 69.9325
RA_OF_ASC_NODE = 186.2150
ARG_OF_PERICENTER = 286.2726
MEAN_ANOMALY   = 73.7634

EPHEMERIS_TYPE = 0
CLASSIFICATION_TYPE = U
NORAD_CAT_ID   = 29228
ELEMENT_SET_NO = 999
REV_AT_EPOCH   = 6944
BSTAR          = .18639488E-3
MEAN_MOTION_DOT = .3093E-4
MEAN_MOTION_DDOT = 0

CCSDS_OMM_VERS = 2.0
CREATION_DATE  = 
ORIGINATOR     = 

OBJECT_NAME    = CZ-4B R/B
OBJECT_ID      = 2006-046C
CENTER_NAME    = EARTH
REF_FRAME      = TEME
TIME_SYSTEM    = UTC
MEAN_ELEMENT_THEORY = SGP/SGP4

EPOCH          = 2025-11-10T13:13:28.382016
MEAN_MOTION    = 15.15390162
ECCENTRICITY   = .00333311
INCLINATION    = 97.5776
RA_OF_ASC_NODE = 354.7779
ARG_OF_PERICENTER = 322.2923
MEAN_ANOMALY   = 37.5973

EPHEMERIS_TYPE = 0
CLASSIFICATION_TYPE = U
NORAD_CAT_ID   = 29507
ELEMENT_SET_NO = 999
REV_AT_EPOCH   = 4199
BSTAR          = .35456232E-3
MEAN_MOTION_DOT = .6718E-4
MEAN_MOTION_DDOT = 0

CCSDS_OMM_VERS = 2.0
CREATION_DATE  = 
ORIGINATOR     = 

OBJECT_NAME    = CZ-2C R/B
OBJECT_ID      = 2007-010B
CENTER_NAME    = EARTH
REF_FRAME      = TEME
TIME_SYSTEM    = UTC
MEAN_ELEMENT_THEORY = SGP/SGP4

EPOCH          = 2025-11-10T07:26:54.837024
MEAN_MOTION    = 14.20189284
ECCENTRICITY   = .00578795
INCLINATION    = 98.3959
RA_OF_ASC_NODE = 68.5963
ARG_OF_PERICENTER = 281.5067
MEAN_ANOMALY   = 77.9616

EPHEMERIS_TYPE = 0
CLASSIFICATION_TYPE = U
NORAD_CAT_ID   = 31114
ELEMENT_SET_NO = 999
REV_AT_EPOCH   = 96277
BSTAR          = .13695252E-3
MEAN_MOTION_DOT = .256E-5
MEAN_MOTION_DDOT = 0

CCSDS_OMM_VERS = 2.0
CREATION_DATE  = 
ORIGINATOR     = 

OBJECT_NAME    = COSMO-SKYMED 1
OBJECT_ID      = 2007-023A
CENTER_NAME    = EARTH
REF_FRAME      = TEME
TIME_SYSTEM    = UTC
MEAN_ELEMENT_THEORY = SGP/SGP4

EPOCH          = 2025-11-10T22:36:02.937024
MEAN_MOTION    = 14.95415919
ECCENTRICITY   = .00015338
INCLINATION    = 97.8863
RA_OF_ASC_NODE = 140.1390
ARG_OF_PERICENTER = 86.7178
MEAN_ANOMALY   = 273.4218

EPHEMERIS_TYPE = 0
CLASSIFICATION_TYPE = U
NORAD_CAT_ID   = 31598
ELEMENT_SET_NO = 999
REV_AT_EPOCH   = 99714
BSTAR          = .72765852E-3
MEAN_MOTION_DOT = .7987E-4
MEAN_MOTION_DDOT = 0

CCSDS_OMM_VERS = 2.0
CREATION_DATE  = 
ORIGINATOR     = 

OBJECT_NAME    = COSMOS 2428
OBJECT_ID      = 2007-029A
CENTER_NAME    = EARTH
REF_FRAME      = TEME
TIME_SYSTEM    = UTC
MEAN_ELEMENT_THEORY = SGP/SGP4

EPOCH          = 2025-11-10T16:00:19.611360
MEAN_MOTION    = 14.12889208
ECCENTRICITY   = .00020535
INCLINATION    = 70.9363
RA_OF_ASC_NODE = 93.2139
ARG_OF_PERICENTER = 82.6504
MEAN_ANOMALY   = 277.4850

EPHEMERIS_TYPE = 0
CLASSIFICATION_TYPE = U
NORAD_CAT_ID   = 31792
ELEMENT_SET_NO = 999
REV_AT_EPOCH   = 94728
BSTAR          = -.77354295E-4
MEAN_MOTION_DOT = -.192E-5
MEAN_MOTION_DDOT = 0

CCSDS_OMM_VERS = 2.0
CREATION_DATE  = 
ORIGINATOR     = 

OBJECT_NAME    = SL-16 R/B
OBJECT_ID      = 2007-029B
CENTER_NAME    = EARTH
REF_FRAME      = TEME
TIME_SYSTEM    = UTC
MEAN_ELEMENT_THEORY = SGP/SGP4

EPOCH          = 2025-11-10T13:31:41.661696
MEAN_MOTION    = 14.14806934
ECCENTRICITY   = .00021572
INCLINATION    = 70.9759
RA_OF_ASC_NODE = 62.7902
ARG_OF_PERICENTER = 258.1819
MEAN_ANOMALY   = 112.8578

EPHEMERIS_TYPE = 0
CLASSIFICATION_TYPE = U
NORAD_CAT_ID   = 31793
ELEMENT_SET_NO = 999
REV_AT_EPOCH   = 94852
BSTAR          = .21704892E-3
MEAN_MOTION_DOT = .371E-5
MEAN_MOTION_DDOT = 0

CCSDS_OMM_VERS = 2.0
CREATION_DATE  = 
ORIGINATOR     = 

OBJECT_NAME    = KORONAS-FOTON
OBJECT_ID      = 2009-003A
CENTER_NAME    = EARTH
REF_FRAME      = TEME
TIME_SYSTEM    = UTC
MEAN_ELEMENT_THEORY = SGP/SGP4

EPOCH          = 2025-11-10T06:43:17.962464
MEAN_MOTION    = 15.40132296
ECCENTRICITY   = .00109461
INCLINATION    = 82.4332
RA_OF_ASC_NODE = 39.7068
ARG_OF_PERICENTER = 221.6535
MEAN_ANOMALY   = 138.3878

EPHEMERIS_TYPE = 0
CLASSIFICATION_TYPE = U
NORAD_CAT_ID   = 33504
ELEMENT_SET_NO = 999
REV_AT_EPOCH   = 92734
BSTAR          = .40699479E-3
MEAN_MOTION_DOT = .16385E-3
MEAN_MOTION_DDOT = 0

CCSDS_OMM_VERS = 2.0
CREATION_DATE  = 
ORIGINATOR     = 

OBJECT_NAME    = CZ-2C R/B
OBJECT_ID      = 2011-030B
CENTER_NAME    = EARTH
REF_FRAME      = TEME
TIME_SYSTEM    = UTC
MEAN_ELEMENT_THEORY = SGP/SGP4

EPOCH          = 2025-11-10T18:20:41.205984
MEAN_MOTION    = 14.80726081
ECCENTRICITY   = .00536804
INCLINATION    = 97.8364
RA_OF_ASC_NODE = 269.5918
ARG_OF_PERICENTER = 19.0114
MEAN_ANOMALY   = 25.0315

EPHEMERIS_TYPE = 0
CLASSIFICATION_TYPE = U
NORAD_CAT_ID   = 37731
ELEMENT_SET_NO = 999
REV_AT_EPOCH   = 77249
BSTAR          = .40293936E-3
MEAN_MOTION_DOT = .3124E-4
MEAN_MOTION_DDOT = 0

