ARIANE 5 R/B            
1 28499U 04049H   25314.91556357  .00001331  00000+0  15373-3 0  9994
2 28499  98.2514 114.0615 0085062  16.8466 343.5541 14.84911862128160
CZ-2D R/B               
1 28738U 05024B   25314.74431506  .00033209  00000+0  57115-3 0  9992
2 28738  97.3670 321.3996 0008213  95.0582 265.1607 15.51010750121295
ALOS (DAICHI)           
1 28931U 06002A   25314.82686190  .00002921  00000+0  50280-3 0  9997
2 28931  98.1044 266.5513 0001145  50.7349 309.3958 14.69326995 56022
H-2A R/B                
1 28932U 06002B   25314.33666924  .00011724  00000+0  63222-3 0  9998
2 28932  98.2298  86.4675 0054739 287.2161  72.3081 15.13651280 76360
RESURS-DK 1             
1 29228U 06021A   25314.08347246  .00003093  00000+0  18639-3 0  9995
2 29228  69.9325 186.2150 0007322 286.2726  73.7634 15.11889172 69445
CZ-4B R/B               
1 29507U 06046C   25314.55102294  .00006718  00000+0  35456-3 0  9999
2 29507  97.5776 354.7779 0033331 322.2923  37.5973 15.15390162 41994
CZ-2C R/B               
1 31114U 07010B   25314.31035691  .00000256  00000+0  13695-3 0  9990
2 31114  98.3959  68.5963 0057879 281.5067  77.9616 14.20189284962773
COSMO-SKYMED 1          
1 31598U 07023A   25314.94170066  .00007987  00000+0  72766-3 0  9997
2 31598  97.8863 140.1390 0001533  86.7178 273.4218 14.95415919997141
COSMOS 2428             
1 31792U 07029A   25314.66689365 -.00000192  00000+0 -77354-4 0  9997
2 31792  70.9363  93.2139 0002053  82.6504 277.4850 14.12889208947280
SL-16 R/B               
1 31793U 07029B   25314.56367664  .00000371  00000+0  21705-3 0  9997
2 31793  70.9759  62.7902 0002157 258.1819 112.8578 14.14806934948527
KORONAS-FOTON           
1 33504U 09003A   25314.28006901  .00016385  00000+0  40699-3 0  9991
2 33504  82.4332  39.7068 0010946 221.6535 138.3878 15.40132296927342
CZ-2C R/B               
1 37731U 11030B   25314.76436581  .00003124  00000+0  40294-3 0  9992
2 37731  97.8364 269.5918 0053680  19.0114  25.0315 14.80726081772490
